{"type": "FeatureCollection", "features": [ {"type": "Feature", "properties": {"norad_id": 66898, "name": "STARLINK-36065", "group": "last-30-days", "lat": 43.23778406125403, "lon": -163.94143190928102, "alt_km": 300.41931400955946, "timestamp": "2025-12-15T07:02:36.375672+00:00", "meta": {"OBJECT_NAME": "STARLINK-36065", "OBJECT_ID": "2025-283W", "EPOCH": "2025-12-14T20:00:06.000192", "MEAN_MOTION": 15.8988436, "ECCENTRICITY": 7.419e-05, "INCLINATION": 53.1543, "RA_OF_ASC_NODE": 63.2336, "ARG_OF_PERICENTER": 64.0462, "MEAN_ANOMALY": 303.3559, "EPHEMERIS_TYPE": 0, "CLASSIFICATION_TYPE": "U", "NORAD_CAT_ID": 66898, "ELEMENT_SET_NO": 999, "REV_AT_EPOCH": 276, "BSTAR": -0.0051869869, "MEAN_MOTION_DOT": -0.0138741, "MEAN_MOTION_DDOT": 0}, "tle": {"line1": "1 66898U 25283W   25348.83340278 -.01387410  00000+0 -51870-2 0  9992", "line2": "2 66898  53.1543  63.2336 0000741  64.0462 303.3559 15.89884360  2762"}}, "geometry": {"type": "Point", "coordinates": [-163.94143190928102, 43.23778406125403]}}, {"type": "Feature", "properties": {"norad_id": 66899, "name": "STARLINK-36064", "group": "last-30-days", "lat": 41.70463328104617, "lon": -161.03843984942017, "alt_km": 300.60582558951864, "timestamp": "2025-12-15T07:02:36.375683+00:00", "meta": {"OBJECT_NAME": "STARLINK-36064", "OBJECT_ID": "2025-283X", "EPOCH": "2025-12-14T20:00:06.000192", "MEAN_MOTION": 15.89912563, "ECCENTRICITY": 9.091e-05, "INCLINATION": 53.1542, "RA_OF_ASC_NODE": 63.2283, "ARG_OF_PERICENTER": 61.231, "MEAN_ANOMALY": 308.7643, "EPHEMERIS_TYPE": 0, "CLASSIFICATION_TYPE": "U", "NORAD_CAT_ID": 66899, "ELEMENT_SET_NO": 999, "REV_AT_EPOCH": 270, "BSTAR": -0.0052227938, "MEAN_MOTION_DOT": -0.0139766, "MEAN_MOTION_DDOT": 0}, "tle": {"line1": "1 66899U 25283X   25348.83340278 -.01397660  00000+0 -52228-2 0  9999", "line2": "2 66899  53.1542  63.2283 0000909  61.2310 308.7643 15.89912563  2704"}}, "geometry": {"type": "Point", "coordinates": [-161.03843984942017, 41.70463328104617]}}, {"type": "Feature", "properties": {"norad_id": 66900, "name": "STARLINK-36074", "group": "last-30-days", "lat": 40.02326612047462, "lon": -158.14461253242214, "alt_km": 300.8449465626618, "timestamp": "2025-12-15T07:02:36.375693+00:00", "meta": {"OBJECT_NAME": "STARLINK-36074", "OBJECT_ID": "2025-283Y", "EPOCH": "2025-12-14T20:00:06.000192", "MEAN_MOTION": 15.89935374, "ECCENTRICITY": 6.68e-05, "INCLINATION": 53.1544, "RA_OF_ASC_NODE": 63.2225, "ARG_OF_PERICENTER": 69.1562, "MEAN_ANOMALY": 303.5665, "EPHEMERIS_TYPE": 0, "CLASSIFICATION_TYPE": "U", "NORAD_CAT_ID": 66900, "ELEMENT_SET_NO": 999, "REV_AT_EPOCH": 276, "BSTAR": -0.0052305981, "MEAN_MOTION_DOT": -0.01400735, "MEAN_MOTION_DDOT": 0}, "tle": {"line1": "1 66900U 25283Y   25348.83340278 -.01400735  00000+0 -52306-2 0  9997", "line2": "2 66900  53.1544  63.2225 0000668  69.1562 303.5665 15.89935374  2761"}}, "geometry": {"type": "Point", "coordinates": [-158.14461253242214, 40.02326612047462]}}, {"type": "Feature", "properties": {"norad_id": 66901, "name": "STARLINK-36043", "group": "last-30-days", "lat": 38.48065114083354, "lon": -155.70685917319003, "alt_km": 300.9794228306446, "timestamp": "2025-12-15T07:02:36.375703+00:00", "meta": {"OBJECT_NAME": "STARLINK-36043", "OBJECT_ID": "2025-283Z", "EPOCH": "2025-12-14T20:00:06.000192", "MEAN_MOTION": 15.89959263, "ECCENTRICITY": 9.002e-05, "INCLINATION": 53.1546, "RA_OF_ASC_NODE": 63.2176, "ARG_OF_PERICENTER": 67.1306, "MEAN_ANOMALY": 307.9858, "EPHEMERIS_TYPE": 0, "CLASSIFICATION_TYPE": "U", "NORAD_CAT_ID": 66901, "ELEMENT_SET_NO": 999, "REV_AT_EPOCH": 276, "BSTAR": -0.0052189105, "MEAN_MOTION_DOT": -0.01399678, "MEAN_MOTION_DDOT": 0}, "tle": {"line1": "1 66901U 25283Z   25348.83340278 -.01399678  00000+0 -52189-2 0  9990", "line2": "2 66901  53.1546  63.2176 0000900  67.1306 307.9858 15.89959263  2767"}}, "geometry": {"type": "Point", "coordinates": [-155.70685917319003, 38.48065114083354]}}, {"type": "Feature", "properties": {"norad_id": 66902, "name": "STARLINK-35983", "group": "last-30-days", "lat": 36.56154305479186, "lon": -152.91261936987675, "alt_km": 301.3348125444227, "timestamp": "2025-12-15T07:02:36.375716+00:00", "meta": {"OBJECT_NAME": "STARLINK-35983", "OBJECT_ID": "2025-283AA", "EPOCH": "2025-12-14T20:00:06.000192", "MEAN_MOTION": 15.89991693, "ECCENTRICITY": 7.083e-05, "INCLINATION": 53.1544, "RA_OF_ASC_NODE": 63.2119, "ARG_OF_PERICENTER": 68.4513, "MEAN_ANOMALY": 309.5621, "EPHEMERIS_TYPE": 0, "CLASSIFICATION_TYPE": "U", "NORAD_CAT_ID": 66902, "ELEMENT_SET_NO": 999, "REV_AT_EPOCH": 276, "BSTAR": -0.0052917105, "MEAN_MOTION_DOT": -0.01418586, "MEAN_MOTION_DDOT": 0}, "tle": {"line1": "1 66902U 25283AA  25348.83340278 -.01418586  00000+0 -52917-2 0  9990", "line2": "2 66902  53.1544  63.2119 0000708  68.4513 309.5621 15.89991693  2762"}}, "geometry": {"type": "Point", "coordinates": [-152.91261936987675, 36.56154305479186]}}, {"type": "Feature", "properties": {"norad_id": 66903, "name": "STARLINK-36077", "group": "last-30-days", "lat": 34.95663256997973, "lon": -150.7447776105674, "alt_km": 301.5901983152662, "timestamp": "2025-12-15T07:02:36.375726+00:00", "meta": {"OBJECT_NAME": "STARLINK-36077", "OBJECT_ID": "2025-283AB", "EPOCH": "2025-12-14T20:00:06.000192", "MEAN_MOTION": 15.90017544, "ECCENTRICITY": 6.803e-05, "INCLINATION": 53.1547, "RA_OF_ASC_NODE": 63.207, "ARG_OF_PERICENTER": 65.1821, "MEAN_ANOMALY": 315.1701, "EPHEMERIS_TYPE": 0, "CLASSIFICATION_TYPE": "U", "NORAD_CAT_ID": 66903, "ELEMENT_SET_NO": 999, "REV_AT_EPOCH": 276, "BSTAR": -0.0052881635, "MEAN_MOTION_DOT": -0.01419381, "MEAN_MOTION_DDOT": 0}, "tle": {"line1": "1 66903U 25283AB  25348.83340278 -.01419381  00000+0 -52882-2 0  9996", "line2": "2 66903  53.1547  63.2070 0000680  65.1821 315.1701 15.90017544  2765"}}, "geometry": {"type": "Point", "coordinates": [-150.7447776105674, 34.95663256997973]}}, {"type": "Feature", "properties": {"norad_id": 66904, "name": "STARLINK-36059", "group": "last-30-days", "lat": 33.22366438154164, "lon": -148.5506660934004, "alt_km": 301.79250155138834, "timestamp": "2025-12-15T07:02:36.375736+00:00", "meta": {"OBJECT_NAME": "STARLINK-36059", "OBJECT_ID": "2025-283AC", "EPOCH": "2025-12-14T20:00:06.000192", "MEAN_MOTION": 15.9005341, "ECCENTRICITY": 6.741e-05, "INCLINATION": 53.1544, "RA_OF_ASC_NODE": 63.2016, "ARG_OF_PERICENTER": 70.1182, "MEAN_ANOMALY": 312.7002, "EPHEMERIS_TYPE": 0, "CLASSIFICATION_TYPE": "U", "NORAD_CAT_ID": 66904, "ELEMENT_SET_NO": 999, "REV_AT_EPOCH": 276, "BSTAR": -0.0053437693, "MEAN_MOTION_DOT": -0.01434639, "MEAN_MOTION_DDOT": 0}, "tle": {"line1": "1 66904U 25283AC  25348.83340278 -.01434639  00000+0 -53438-2 0  9998", "line2": "2 66904  53.1544  63.2016 0000674  70.1182 312.7002 15.90053410  2761"}}, "geometry": {"type": "Point", "coordinates": [-148.5506660934004, 33.22366438154164]}}, {"type": "Feature", "properties": {"norad_id": 66905, "name": "STARLINK-36075", "group": "last-30-days", "lat": 31.676844655083578, "lon": -146.70103329421633, "alt_km": 301.97779331890433, "timestamp": "2025-12-15T07:02:36.375746+00:00", "meta": {"OBJECT_NAME": "STARLINK-36075", "OBJECT_ID": "2025-283AD", "EPOCH": "2025-12-14T20:00:06.000192", "MEAN_MOTION": 15.9008042, "ECCENTRICITY": 7.074e-05, "INCLINATION": 53.1547, "RA_OF_ASC_NODE": 63.1973, "ARG_OF_PERICENTER": 69.678, "MEAN_ANOMALY": 315.2897, "EPHEMERIS_TYPE": 0, "CLASSIFICATION_TYPE": "U", "NORAD_CAT_ID": 66905, "ELEMENT_SET_NO": 999, "REV_AT_EPOCH": 276, "BSTAR": -0.0053242816, "MEAN_MOTION_DOT": -0.01431851, "MEAN_MOTION_DDOT": 0}, "tle": {"line1": "1 66905U 25283AD  25348.83340278 -.01431851  00000+0 -53243-2 0  9996", "line2": "2 66905  53.1547  63.1973 0000707  69.6780 315.2897 15.90080420  2761"}}, "geometry": {"type": "Point", "coordinates": [-146.70103329421633, 31.676844655083578]}}, {"type": "Feature", "properties": {"norad_id": 66906, "name": "1998-067XS", "group": "last-30-days", "lat": -49.58430482737832, "lon": 61.248156689515035, "alt_km": 418.3322482469712, "timestamp": "2025-12-15T07:02:36.375756+00:00", "meta": {"OBJECT_NAME": "1998-067XS", "OBJECT_ID": "1998-067XS", "EPOCH": "2025-12-14T03:31:53.110272", "MEAN_MOTION": 15.5066238, "ECCENTRICITY": 0.00034792, "INCLINATION": 51.6304, "RA_OF_ASC_NODE": 135.4381, "ARG_OF_PERICENTER": 209.6903, "MEAN_ANOMALY": 150.3889, "EPHEMERIS_TYPE": 0, "CLASSIFICATION_TYPE": "U", "NORAD_CAT_ID": 66906, "ELEMENT_SET_NO": 999, "REV_AT_EPOCH": 183, "BSTAR": 0.00050586866, "MEAN_MOTION_DOT": 0.0002921, "MEAN_MOTION_DDOT": 0}, "tle": {"line1": "1 66906U 98067XS  25348.14714248  .00029210  00000+0  50587-3 0  9991", "line2": "2 66906  51.6304 135.4381 0003479 209.6903 150.3889 15.50662380  1837"}}, "geometry": {"type": "Point", "coordinates": [61.248156689515035, -49.58430482737832]}}, {"type": "Feature", "properties": {"norad_id": 66907, "name": "1998-067XT", "group": "last-30-days", "lat": -38.14971537341684, "lon": 91.21145905147793, "alt_km": 414.5685596430649, "timestamp": "2025-12-15T07:02:36.375767+00:00", "meta": {"OBJECT_NAME": "1998-067XT", "OBJECT_ID": "1998-067XT", "EPOCH": "2025-12-14T20:26:51.623232", "MEAN_MOTION": 15.5174474, "ECCENTRICITY": 0.0004185, "INCLINATION": 51.6299, "RA_OF_ASC_NODE": 131.8946, "ARG_OF_PERICENTER": 238.563, "MEAN_ANOMALY": 121.4951, "EPHEMERIS_TYPE": 0, "CLASSIFICATION_TYPE": "U", "NORAD_CAT_ID": 66907, "ELEMENT_SET_NO": 999, "REV_AT_EPOCH": 194, "BSTAR": 0.00073206152, "MEAN_MOTION_DOT": 0.00044251, "MEAN_MOTION_DDOT": 0}, "tle": {"line1": "1 66907U 98067XT  25348.85198638  .00044251  00000+0  73206-3 0  9994", "line2": "2 66907  51.6299 131.8946 0004185 238.5630 121.4951 15.51744740  1944"}}, "geometry": {"type": "Point", "coordinates": [91.21145905147793, -38.14971537341684]}}]}